{
  "norad_id": 39620,
  "name": "COSMOS 2492 [GLONASS-M]",
  "history": [
    {
      "epoch": "2026-03-26T06:42:14.156928",
      "apogee_km": 19162.044812689714,
      "perigee_km": 19097.546984038883,
      "latitude_deg": 11.50926085471832,
      "longitude_deg": 136.81572992005385,
      "semi_major_axis_km": 25507.932898364295,
      "eccentricity": 0.00126427,
      "inclination_deg": 65.3447,
      "raan_deg": 316.7556,
      "arg_perigee_deg": 328.9539,
      "mean_anomaly_deg": 31.0243,
      "mean_motion_rev_day": 2.13103147
    }
  ]
}